[{"OBJECT_NAME":"STARLINK-32145","OBJECT_ID":"2024-120V","EPOCH":"2026-03-03T04:33:29.906208","MEAN_MOTION":15.30210526,"ECCENTRICITY":0.00013909,"INCLINATION":53.1627,"RA_OF_ASC_NODE":349.9274,"ARG_OF_PERICENTER":106.2593,"MEAN_ANOMALY":253.8561,"EPHEMERIS_TYPE":0,"CLASSIFICATION_TYPE":"U","NORAD_CAT_ID":60154,"ELEMENT_SET_NO":999,"REV_AT_EPOCH":9538,"BSTAR":8.1575591e-5,"MEAN_MOTION_DOT":2.058e-5,"MEAN_MOTION_DDOT":0},{"OBJECT_NAME":"STARLINK-32137","OBJECT_ID":"2024-120W","EPOCH":"2026-03-03T04:57:50.486976","MEAN_MOTION":15.30194119,"ECCENTRICITY":0.00012687,"INCLINATION":53.1631,"RA_OF_ASC_NODE":350.0319,"ARG_OF_PERICENTER":77.2604,"MEAN_ANOMALY":282.8539,"EPHEMERIS_TYPE":0,"CLASSIFICATION_TYPE":"U","NORAD_CAT_ID":60155,"ELEMENT_SET_NO":999,"REV_AT_EPOCH":9538,"BSTAR":8.284724e-6,"MEAN_MOTION_DOT":-1.14e-6,"MEAN_MOTION_DDOT":0},{"OBJECT_NAME":"STARLINK-32048","OBJECT_ID":"2024-120X","EPOCH":"2026-03-03T05:02:23.898048","MEAN_MOTION":15.30193085,"ECCENTRICITY":0.00020583,"INCLINATION":53.1622,"RA_OF_ASC_NODE":350.0509,"ARG_OF_PERICENTER":107.992,"MEAN_ANOMALY":252.1306,"EPHEMERIS_TYPE":0,"CLASSIFICATION_TYPE":"U","NORAD_CAT_ID":60156,"ELEMENT_SET_NO":999,"REV_AT_EPOCH":9538,"BSTAR":1.4546693e-5,"MEAN_MOTION_DOT":7.1e-7,"MEAN_MOTION_DDOT":0},{"OBJECT_NAME":"STARLINK-32129","OBJECT_ID":"2024-120Y","EPOCH":"2026-03-03T04:10:54.488928","MEAN_MOTION":15.30173116,"ECCENTRICITY":0.00013465,"INCLINATION":53.1621,"RA_OF_ASC_NODE":350.5404,"ARG_OF_PERICENTER":76.2252,"MEAN_ANOMALY":283.8899,"EPHEMERIS_TYPE":0,"CLASSIFICATION_TYPE":"U","NORAD_CAT_ID":60157,"ELEMENT_SET_NO":999,"REV_AT_EPOCH":9545,"BSTAR":0.00018966775,"MEAN_MOTION_DOT":5.258e-5,"MEAN_MOTION_DDOT":0},{"OBJECT_NAME":"STARLINK-11168 [DTC]","OBJECT_ID":"2024-124A","EPOCH":"2026-03-03T15:08:58.836192","MEAN_MOTION":15.69710566,"ECCENTRICITY":9.537e-5,"INCLINATION":53.1592,"RA_OF_ASC_NODE":191.0401,"ARG_OF_PERICENTER":86.0129,"MEAN_ANOMALY":274.0998,"EPHEMERIS_TYPE":0,"CLASSIFICATION_TYPE":"U","NORAD_CAT_ID":60183,"ELEMENT_SET_NO":999,"REV_AT_EPOCH":9677,"BSTAR":-5.151192e-6,"MEAN_MOTION_DOT":-1.212e-5,"MEAN_MOTION_DDOT":0},{"OBJECT_NAME":"STARLINK-11187 [DTC]","OBJECT_ID":"2024-124B","EPOCH":"2026-03-03T15:01:55.756128","MEAN_MOTION":15.69703637,"ECCENTRICITY":9.792e-5,"INCLINATION":53.1592,"RA_OF_ASC_NODE":191.011,"ARG_OF_PERICENTER":104.9438,"MEAN_ANOMALY":255.1689,"EPHEMERIS_TYPE":0,"CLASSIFICATION_TYPE":"U","NORAD_CAT_ID":60184,"ELEMENT_SET_NO":999,"REV_AT_EPOCH":9558,"BSTAR":5.068385e-6,"MEAN_MOTION_DOT":2.6e-7,"MEAN_MOTION_DDOT":0},{"OBJECT_NAME":"STARLINK-11180 [DTC]","OBJECT_ID":"2024-124C","EPOCH":"2026-03-03T14:54:52.142112","MEAN_MOTION":15.69690916,"ECCENTRICITY":0.00010787,"INCLINATION":53.1603,"RA_OF_ASC_NODE":190.9754,"ARG_OF_PERICENTER":78.9619,"MEAN_ANOMALY":281.152,"EPHEMERIS_TYPE":0,"CLASSIFICATION_TYPE":"U","NORAD_CAT_ID":60185,"ELEMENT_SET_NO":999,"REV_AT_EPOCH":9558,"BSTAR":7.916391e-6,"MEAN_MOTION_DOT":3.7e-6,"MEAN_MOTION_DDOT":0},{"OBJECT_NAME":"STARLINK-11197 [DTC]","OBJECT_ID":"2024-124D","EPOCH":"2026-03-03T14:47:47.967360","MEAN_MOTION":15.69700734,"ECCENTRICITY":0.00011952,"INCLINATION":53.1595,"RA_OF_ASC_NODE":190.944,"ARG_OF_PERICENTER":71.5379,"MEAN_ANOMALY":288.5769,"EPHEMERIS_TYPE":0,"CLASSIFICATION_TYPE":"U","NORAD_CAT_ID":60186,"ELEMENT_SET_NO":999,"REV_AT_EPOCH":9558,"BSTAR":-4.927718e-6,"MEAN_MOTION_DOT":-1.185e-5,"MEAN_MOTION_DDOT":0},{"OBJECT_NAME":"STARLINK-11194 [DTC]","OBJECT_ID":"2024-124E","EPOCH":"2026-03-03T14:40:43.599072","MEAN_MOTION":15.69712738,"ECCENTRICITY":9.99e-5,"INCLINATION":53.158,"RA_OF_ASC_NODE":190.9096,"ARG_OF_PERICENTER":83.5968,"MEAN_ANOMALY":276.5164,"EPHEMERIS_TYPE":0,"CLASSIFICATION_TYPE":"U","NORAD_CAT_ID":60187,"ELEMENT_SET_NO":999,"REV_AT_EPOCH":9558,"BSTAR":0.00013892678,"MEAN_MOTION_DOT":0.00016277,"MEAN_MOTION_DDOT":0},{"OBJECT_NAME":"STARLINK-11189 [DTC]","OBJECT_ID":"2024-124F","EPOCH":"2026-03-03T14:33:48.262176","MEAN_MOTION":15.69714108,"ECCENTRICITY":0.00010059,"INCLINATION":53.1604,"RA_OF_ASC_NODE":191.6107,"ARG_OF_PERICENTER":113.029,"MEAN_ANOMALY":247.0834,"EPHEMERIS_TYPE":0,"CLASSIFICATION_TYPE":"U","NORAD_CAT_ID":60188,"ELEMENT_SET_NO":999,"REV_AT_EPOCH":9557,"BSTAR":1.1058375e-5,"MEAN_MOTION_DOT":7.52e-6,"MEAN_MOTION_DDOT":0},{"OBJECT_NAME":"STARLINK-11183 [DTC]","OBJECT_ID":"2024-124G","EPOCH":"2026-03-03T14:26:44.661120","MEAN_MOTION":15.69709343,"ECCENTRICITY":9.246e-5,"INCLINATION":53.1579,"RA_OF_ASC_NODE":191.5786,"ARG_OF_PERICENTER":86.8088,"MEAN_ANOMALY":273.3035,"EPHEMERIS_TYPE":0,"CLASSIFICATION_TYPE":"U","NORAD_CAT_ID":60189,"ELEMENT_SET_NO":999,"REV_AT_EPOCH":9557,"BSTAR":8.401174e-6,"MEAN_MOTION_DOT":4.3e-6,"MEAN_MOTION_DDOT":0},{"OBJECT_NAME":"STARLINK-11179 [DTC]","OBJECT_ID":"2024-124H","EPOCH":"2026-03-03T14:19:40.810368","MEAN_MOTION":15.69707729,"ECCENTRICITY":0.00012226,"INCLINATION":53.1596,"RA_OF_ASC_NODE":191.5493,"ARG_OF_PERICENTER":50.5635,"MEAN_ANOMALY":309.5491,"EPHEMERIS_TYPE":0,"CLASSIFICATION_TYPE":"U","NORAD_CAT_ID":60190,"ELEMENT_SET_NO":999,"REV_AT_EPOCH":9557,"BSTAR":1.646018e-5,"MEAN_MOTION_DOT":1.406e-5,"MEAN_MOTION_DDOT":0},{"OBJECT_NAME":"STARLINK-11175 [DTC]","OBJECT_ID":"2024-124J","EPOCH":"2026-03-03T12:40:56.059968","MEAN_MOTION":15.69708015,"ECCENTRICITY":0.00022015,"INCLINATION":53.1602,"RA_OF_ASC_NODE":191.8302,"ARG_OF_PERICENTER":110.5546,"MEAN_ANOMALY":249.5708,"EPHEMERIS_TYPE":0,"CLASSIFICATION_TYPE":"U","NORAD_CAT_ID":60191,"ELEMENT_SET_NO":999,"REV_AT_EPOCH":9556,"BSTAR":6.14584e-7,"MEAN_MOTION_DOT":-5.16e-6,"MEAN_MOTION_DDOT":0},{"OBJECT_NAME":"STARLINK-11173 [DTC]","OBJECT_ID":"2024-124K","EPOCH":"2026-03-03T12:33:52.101216","MEAN_MOTION":15.69736583,"ECCENTRICITY":0.00011455,"INCLINATION":53.1589,"RA_OF_ASC_NODE":191.7939,"ARG_OF_PERICENTER":101.9758,"MEAN_ANOMALY":258.1388,"EPHEMERIS_TYPE":0,"CLASSIFICATION_TYPE":"U","NORAD_CAT_ID":60192,"ELEMENT_SET_NO":999,"REV_AT_EPOCH":9556,"BSTAR":0.00023089835,"MEAN_MOTION_DOT":0.00027508,"MEAN_MOTION_DDOT":0},{"OBJECT_NAME":"STARLINK-11172 [DTC]","OBJECT_ID":"2024-124L","EPOCH":"2026-03-03T12:26:48.380064","MEAN_MOTION":15.69730107,"ECCENTRICITY":0.00010324,"INCLINATION":53.1581,"RA_OF_ASC_NODE":191.7622,"ARG_OF_PERICENTER":94.7964,"MEAN_ANOMALY":265.3172,"EPHEMERIS_TYPE":0,"CLASSIFICATION_TYPE":"U","NORAD_CAT_ID":60193,"ELEMENT_SET_NO":999,"REV_AT_EPOCH":9556,"BSTAR":9.985078e-5,"MEAN_MOTION_DOT":0.00011535,"MEAN_MOTION_DDOT":0},{"OBJECT_NAME":"STARLINK-11152 [DTC]","OBJECT_ID":"2024-124M","EPOCH":"2026-03-03T15:23:05.872416","MEAN_MOTION":15.69721064,"ECCENTRICITY":4.9e-6,"INCLINATION":53.1587,"RA_OF_ASC_NODE":191.1006,"ARG_OF_PERICENTER":278.8916,"MEAN_ANOMALY":81.2097,"EPHEMERIS_TYPE":0,"CLASSIFICATION_TYPE":"U","NORAD_CAT_ID":60194,"ELEMENT_SET_NO":999,"REV_AT_EPOCH":9677,"BSTAR":1.1168099e-5,"MEAN_MOTION_DOT":7.67e-6,"MEAN_MOTION_DDOT":0},{"OBJECT_NAME":"STARLINK-11193 [DTC]","OBJECT_ID":"2024-124N","EPOCH":"2026-03-03T15:16:02.673984","MEAN_MOTION":15.69710904,"ECCENTRICITY":0.00011845,"INCLINATION":53.1585,"RA_OF_ASC_NODE":191.0675,"ARG_OF_PERICENTER":77.4845,"MEAN_ANOMALY":282.6305,"EPHEMERIS_TYPE":0,"CLASSIFICATION_TYPE":"U","NORAD_CAT_ID":60195,"ELEMENT_SET_NO":999,"REV_AT_EPOCH":9558,"BSTAR":2.9596111e-5,"MEAN_MOTION_DOT":2.998e-5,"MEAN_MOTION_DDOT":0},{"OBJECT_NAME":"STARLINK-31869","OBJECT_ID":"2024-124P","EPOCH":"2026-03-03T04:51:05.471424","MEAN_MOTION":15.30197429,"ECCENTRICITY":0.00012878,"INCLINATION":53.1625,"RA_OF_ASC_NODE":352.547,"ARG_OF_PERICENTER":93.8636,"MEAN_ANOMALY":266.2512,"EPHEMERIS_TYPE":0,"CLASSIFICATION_TYPE":"U","NORAD_CAT_ID":60196,"ELEMENT_SET_NO":999,"REV_AT_EPOCH":9330,"BSTAR":5.3606861e-5,"MEAN_MOTION_DOT":1.229e-5,"MEAN_MOTION_DDOT":0},{"OBJECT_NAME":"STARLINK-32023","OBJECT_ID":"2024-124Q","EPOCH":"2026-03-03T04:07:12.827136","MEAN_MOTION":15.30177855,"ECCENTRICITY":0.00010737,"INCLINATION":53.1617,"RA_OF_ASC_NODE":353.064,"ARG_OF_PERICENTER":94.0378,"MEAN_ANOMALY":266.0745,"EPHEMERIS_TYPE":0,"CLASSIFICATION_TYPE":"U","NORAD_CAT_ID":60197,"ELEMENT_SET_NO":999,"REV_AT_EPOCH":9329,"BSTAR":-8.2066419e-5,"MEAN_MOTION_DOT":-2.787e-5,"MEAN_MOTION_DDOT":0},{"OBJECT_NAME":"STARLINK-32046","OBJECT_ID":"2024-124R","EPOCH":"2026-03-03T01:59:42.787104","MEAN_MOTION":15.30193324,"ECCENTRICITY":0.00012472,"INCLINATION":53.1628,"RA_OF_ASC_NODE":353.2198,"ARG_OF_PERICENTER":89.9748,"MEAN_ANOMALY":270.1395,"EPHEMERIS_TYPE":0,"CLASSIFICATION_TYPE":"U","NORAD_CAT_ID":60198,"ELEMENT_SET_NO":999,"REV_AT_EPOCH":9451,"BSTAR":-1.0310448e-5,"MEAN_MOTION_DOT":-6.64e-6,"MEAN_MOTION_DDOT":0},{"OBJECT_NAME":"STARLINK-32049","OBJECT_ID":"2024-124S","EPOCH":"2026-03-03T05:27:34.174368","MEAN_MOTION":15.30195813,"ECCENTRICITY":0.0001028,"INCLINATION":53.1618,"RA_OF_ASC_NODE":352.6983,"ARG_OF_PERICENTER":102.7376,"MEAN_ANOMALY":257.374,"EPHEMERIS_TYPE":0,"CLASSIFICATION_TYPE":"U","NORAD_CAT_ID":60199,"ELEMENT_SET_NO":999,"REV_AT_EPOCH":9453,"BSTAR":2.4838247e-5,"MEAN_MOTION_DOT":3.77e-6,"MEAN_MOTION_DDOT":0},{"OBJECT_NAME":"STARLINK-32002","OBJECT_ID":"2024-124T","EPOCH":"2026-03-03T05:09:20.084256","MEAN_MOTION":15.30189744,"ECCENTRICITY":0.00011781,"INCLINATION":53.1624,"RA_OF_ASC_NODE":352.6204,"ARG_OF_PERICENTER":74.0684,"MEAN_ANOMALY":286.0446,"EPHEMERIS_TYPE":0,"CLASSIFICATION_TYPE":"U","NORAD_CAT_ID":60200,"ELEMENT_SET_NO":999,"REV_AT_EPOCH":9330,"BSTAR":2.4019901e-5,"MEAN_MOTION_DOT":3.52e-6,"MEAN_MOTION_DDOT":0},{"OBJECT_NAME":"STARLINK-32020","OBJECT_ID":"2024-124U","EPOCH":"2026-03-03T04:29:49.466112","MEAN_MOTION":15.30198733,"ECCENTRICITY":0.00012908,"INCLINATION":53.1626,"RA_OF_ASC_NODE":352.4464,"ARG_OF_PERICENTER":98.5856,"MEAN_ANOMALY":261.5291,"EPHEMERIS_TYPE":0,"CLASSIFICATION_TYPE":"U","NORAD_CAT_ID":60201,"ELEMENT_SET_NO":999,"REV_AT_EPOCH":9330,"BSTAR":0.00031055044,"MEAN_MOTION_DOT":8.849e-5,"MEAN_MOTION_DDOT":0}]
